[{"OBJECT_NAME":"STARLINK-5912","OBJECT_ID":"2023-042AL","EPOCH":"2026-03-09T22:00:01.999584","MEAN_MOTION":15.06548155,"ECCENTRICITY":0.00020231,"INCLINATION":43.0008,"RA_OF_ASC_NODE":42.0403,"ARG_OF_PERICENTER":243.2496,"MEAN_ANOMALY":74.6904,"EPHEMERIS_TYPE":0,"CLASSIFICATION_TYPE":"U","NORAD_CAT_ID":56020,"ELEMENT_SET_NO":999,"REV_AT_EPOCH":572,"BSTAR":0.0041131287,"MEAN_MOTION_DOT":0.00062206,"MEAN_MOTION_DDOT":0},{"OBJECT_NAME":"CZ-4C R\/B","OBJECT_ID":"2021-026B","EPOCH":"2026-03-09T16:37:41.696544","MEAN_MOTION":15.16445633,"ECCENTRICITY":0.00393855,"INCLINATION":97.7468,"RA_OF_ASC_NODE":117.371,"ARG_OF_PERICENTER":22.5612,"MEAN_ANOMALY":337.7341,"EPHEMERIS_TYPE":0,"CLASSIFICATION_TYPE":"U","NORAD_CAT_ID":48080,"ELEMENT_SET_NO":999,"REV_AT_EPOCH":27175,"BSTAR":0.00026802982,"MEAN_MOTION_DOT":5.244e-5,"MEAN_MOTION_DDOT":0}]
